CS1                     
1 49261U 21088B   26068.75173904  .00015722  00000+0  51176-3 0  9998
2 49261  97.3882 132.1684 0014129  78.0335 282.2490 15.31848439245182
STARLINK-35663          
1 66491U 25263G   26068.14023977  .00025893  00000+0  94750-3 0  9993
2 66491  43.0016 353.8950 0000671 289.3507  70.7272 15.27568398 18810
